CCSDS_OMM_VERS = 2.0
CREATION_DATE  = 
ORIGINATOR     = 

OBJECT_NAME    = ORBVIEW 2 (SEASTAR)
OBJECT_ID      = 1997-037A
CENTER_NAME    = EARTH
REF_FRAME      = TEME
TIME_SYSTEM    = UTC
MEAN_ELEMENT_THEORY = SGP/SGP4

EPOCH          = 2025-11-24T10:38:05.854848
MEAN_MOTION    = 14.35396789
ECCENTRICITY   = .0002559
INCLINATION    = 98.8453
RA_OF_ASC_NODE = 125.0582
ARG_OF_PERICENTER = 34.5135
MEAN_ANOMALY   = 325.6215

EPHEMERIS_TYPE = 0
CLASSIFICATION_TYPE = U
NORAD_CAT_ID   = 24883
ELEMENT_SET_NO = 999
REV_AT_EPOCH   = 49337
BSTAR          = .13632E-3
MEAN_MOTION_DOT = .345E-5
MEAN_MOTION_DDOT = 0

CCSDS_OMM_VERS = 2.0
CREATION_DATE  = 
ORIGINATOR     = 

OBJECT_NAME    = SL-16 R/B
OBJECT_ID      = 1998-043G
CENTER_NAME    = EARTH
REF_FRAME      = TEME
TIME_SYSTEM    = UTC
MEAN_ELEMENT_THEORY = SGP/SGP4

EPOCH          = 2025-11-24T08:16:52.754592
MEAN_MOTION    = 14.26018791
ECCENTRICITY   = .0009219
INCLINATION    = 98.8096
RA_OF_ASC_NODE = 276.0629
ARG_OF_PERICENTER = 326.2039
MEAN_ANOMALY   = 33.8552

EPHEMERIS_TYPE = 0
CLASSIFICATION_TYPE = U
NORAD_CAT_ID   = 25400
ELEMENT_SET_NO = 999
REV_AT_EPOCH   = 42397
BSTAR          = .58448E-4
MEAN_MOTION_DOT = .94E-6
MEAN_MOTION_DDOT = 0

CCSDS_OMM_VERS = 2.0
CREATION_DATE  = 
ORIGINATOR     = 

OBJECT_NAME    = SL-16 R/B
OBJECT_ID      = 1998-045B
CENTER_NAME    = EARTH
REF_FRAME      = TEME
TIME_SYSTEM    = UTC
MEAN_ELEMENT_THEORY = SGP/SGP4

EPOCH          = 2025-11-24T09:35:50.362944
MEAN_MOTION    = 14.16169923
ECCENTRICITY   = .0008057
INCLINATION    = 71.0124
RA_OF_ASC_NODE = 42.9943
ARG_OF_PERICENTER = 202.4535
MEAN_ANOMALY   = 157.6237

EPHEMERIS_TYPE = 0
CLASSIFICATION_TYPE = U
NORAD_CAT_ID   = 25407
ELEMENT_SET_NO = 999
REV_AT_EPOCH   = 41219
BSTAR          = .14252E-3
MEAN_MOTION_DOT = .234E-5
MEAN_MOTION_DDOT = 0

CCSDS_OMM_VERS = 2.0
CREATION_DATE  = 
ORIGINATOR     = 

OBJECT_NAME    = ISS (ZARYA)
OBJECT_ID      = 1998-067A
CENTER_NAME    = EARTH
REF_FRAME      = TEME
TIME_SYSTEM    = UTC
MEAN_ELEMENT_THEORY = SGP/SGP4

EPOCH          = 2025-11-24T05:19:54.222240
MEAN_MOTION    = 15.49037704
ECCENTRICITY   = .0003908
INCLINATION    = 51.6316
RA_OF_ASC_NODE = 234.1374
ARG_OF_PERICENTER = 162.5046
MEAN_ANOMALY   = 197.6078

EPHEMERIS_TYPE = 0
CLASSIFICATION_TYPE = U
NORAD_CAT_ID   = 25544
ELEMENT_SET_NO = 999
REV_AT_EPOCH   = 53998
BSTAR          = .26056E-3
MEAN_MOTION_DOT = .13951E-3
MEAN_MOTION_DDOT = 0

CCSDS_OMM_VERS = 2.0
CREATION_DATE  = 
ORIGINATOR     = 

OBJECT_NAME    = CZ-4B R/B
OBJECT_ID      = 1999-025C
CENTER_NAME    = EARTH
REF_FRAME      = TEME
TIME_SYSTEM    = UTC
MEAN_ELEMENT_THEORY = SGP/SGP4

EPOCH          = 2025-11-24T02:57:57.413088
MEAN_MOTION    = 14.18236841
ECCENTRICITY   = .0036041
INCLINATION    = 98.6795
RA_OF_ASC_NODE = 9.8177
ARG_OF_PERICENTER = 289.0415
MEAN_ANOMALY   = 129.5337

EPHEMERIS_TYPE = 0
CLASSIFICATION_TYPE = U
NORAD_CAT_ID   = 25732
ELEMENT_SET_NO = 999
REV_AT_EPOCH   = 37320
BSTAR          = .60602E-4
MEAN_MOTION_DOT = .82E-6
MEAN_MOTION_DDOT = 0

CCSDS_OMM_VERS = 2.0
CREATION_DATE  = 
ORIGINATOR     = 

OBJECT_NAME    = OKEAN-O
OBJECT_ID      = 1999-039A
CENTER_NAME    = EARTH
REF_FRAME      = TEME
TIME_SYSTEM    = UTC
MEAN_ELEMENT_THEORY = SGP/SGP4

EPOCH          = 2025-11-24T03:09:04.608576
MEAN_MOTION    = 14.80114386
ECCENTRICITY   = .00011
INCLINATION    = 97.9627
RA_OF_ASC_NODE = 23.9920
ARG_OF_PERICENTER = 69.4411
MEAN_ANOMALY   = 290.6919

EPHEMERIS_TYPE = 0
CLASSIFICATION_TYPE = U
NORAD_CAT_ID   = 25860
ELEMENT_SET_NO = 999
REV_AT_EPOCH   = 41877
BSTAR          = .11192E-3
MEAN_MOTION_DOT = .797E-5
MEAN_MOTION_DDOT = 0

CCSDS_OMM_VERS = 2.0
CREATION_DATE  = 
ORIGINATOR     = 

OBJECT_NAME    = SL-16 R/B
OBJECT_ID      = 1999-039B
CENTER_NAME    = EARTH
REF_FRAME      = TEME
TIME_SYSTEM    = UTC
MEAN_ELEMENT_THEORY = SGP/SGP4

EPOCH          = 2025-11-24T03:27:48.103200
MEAN_MOTION    = 14.81546900
ECCENTRICITY   = .0013683
INCLINATION    = 98.0150
RA_OF_ASC_NODE = 22.2920
ARG_OF_PERICENTER = 237.0920
MEAN_ANOMALY   = 122.8977

EPHEMERIS_TYPE = 0
CLASSIFICATION_TYPE = U
NORAD_CAT_ID   = 25861
ELEMENT_SET_NO = 999
REV_AT_EPOCH   = 42123
BSTAR          = .10359E-3
MEAN_MOTION_DOT = .76E-5
MEAN_MOTION_DDOT = 0

CCSDS_OMM_VERS = 2.0
CREATION_DATE  = 
ORIGINATOR     = 

OBJECT_NAME    = DELTA 2 R/B
OBJECT_ID      = 1999-041E
CENTER_NAME    = EARTH
REF_FRAME      = TEME
TIME_SYSTEM    = UTC
MEAN_ELEMENT_THEORY = SGP/SGP4

EPOCH          = 2025-11-24T02:08:54.369024
MEAN_MOTION    = 14.11332653
ECCENTRICITY   = .0504906
INCLINATION    = 51.7628
RA_OF_ASC_NODE = 2.8917
ARG_OF_PERICENTER = 36.8093
MEAN_ANOMALY   = 326.6414

EPHEMERIS_TYPE = 0
CLASSIFICATION_TYPE = U
NORAD_CAT_ID   = 25876
ELEMENT_SET_NO = 999
REV_AT_EPOCH   = 34811
BSTAR          = .20179E-3
MEAN_MOTION_DOT = .1006E-4
MEAN_MOTION_DDOT = 0

CCSDS_OMM_VERS = 2.0
CREATION_DATE  = 
ORIGINATOR     = 

OBJECT_NAME    = HELIOS 1B
OBJECT_ID      = 1999-064A
CENTER_NAME    = EARTH
REF_FRAME      = TEME
TIME_SYSTEM    = UTC
MEAN_ELEMENT_THEORY = SGP/SGP4

EPOCH          = 2025-11-24T07:13:59.981088
MEAN_MOTION    = 14.87169183
ECCENTRICITY   = .0002434
INCLINATION    = 98.1752
RA_OF_ASC_NODE = 222.4215
ARG_OF_PERICENTER = 68.0099
MEAN_ANOMALY   = 292.1374

EPHEMERIS_TYPE = 0
CLASSIFICATION_TYPE = U
NORAD_CAT_ID   = 25977
ELEMENT_SET_NO = 999
REV_AT_EPOCH   = 66959
BSTAR          = .20881E-3
MEAN_MOTION_DOT = .1819E-4
MEAN_MOTION_DDOT = 0

CCSDS_OMM_VERS = 2.0
CREATION_DATE  = 
ORIGINATOR     = 

OBJECT_NAME    = TERRA
OBJECT_ID      = 1999-068A
CENTER_NAME    = EARTH
REF_FRAME      = TEME
TIME_SYSTEM    = UTC
MEAN_ELEMENT_THEORY = SGP/SGP4

EPOCH          = 2025-11-24T11:02:01.612032
MEAN_MOTION    = 14.60921463
ECCENTRICITY   = .0003075
INCLINATION    = 97.9772
RA_OF_ASC_NODE = 20.8121
ARG_OF_PERICENTER = 135.1072
MEAN_ANOMALY   = 352.3411

EPHEMERIS_TYPE = 0
CLASSIFICATION_TYPE = U
NORAD_CAT_ID   = 25994
ELEMENT_SET_NO = 999
REV_AT_EPOCH   = 37971
BSTAR          = .125E-3
MEAN_MOTION_DOT = .567E-5
MEAN_MOTION_DDOT = 0

CCSDS_OMM_VERS = 2.0
CREATION_DATE  = 
ORIGINATOR     = 

OBJECT_NAME    = SL-16 R/B
OBJECT_ID      = 2000-006B
CENTER_NAME    = EARTH
REF_FRAME      = TEME
TIME_SYSTEM    = UTC
MEAN_ELEMENT_THEORY = SGP/SGP4

EPOCH          = 2025-11-24T09:18:43.636320
MEAN_MOTION    = 14.15801591
ECCENTRICITY   = .0017448
INCLINATION    = 71.0017
RA_OF_ASC_NODE = 319.2450
ARG_OF_PERICENTER = 334.4641
MEAN_ANOMALY   = 25.5619

EPHEMERIS_TYPE = 0
CLASSIFICATION_TYPE = U
NORAD_CAT_ID   = 26070
ELEMENT_SET_NO = 999
REV_AT_EPOCH   = 33365
BSTAR          = .76918E-4
MEAN_MOTION_DOT = .104E-5
MEAN_MOTION_DDOT = 0

CCSDS_OMM_VERS = 2.0
CREATION_DATE  = 
ORIGINATOR     = 

OBJECT_NAME    = TITAN 4B R/B
OBJECT_ID      = 2000-047B
CENTER_NAME    = EARTH
REF_FRAME      = TEME
TIME_SYSTEM    = UTC
MEAN_ELEMENT_THEORY = SGP/SGP4

EPOCH          = 2025-11-24T10:40:52.783104
MEAN_MOTION    = 15.08587165
ECCENTRICITY   = .0040522
INCLINATION    = 67.9902
RA_OF_ASC_NODE = 336.2287
ARG_OF_PERICENTER = 166.3242
MEAN_ANOMALY   = 193.9015

EPHEMERIS_TYPE = 0
CLASSIFICATION_TYPE = U
NORAD_CAT_ID   = 26474
ELEMENT_SET_NO = 999
REV_AT_EPOCH   = 37703
BSTAR          = .22673E-3
MEAN_MOTION_DOT = .3485E-4
MEAN_MOTION_DDOT = 0

