ORBVIEW 2 (SEASTAR)     
1 24883U 97037A   25328.44312332  .00000345  00000+0  13632-3 0  9992
2 24883  98.8453 125.0582 0002559  34.5135 325.6215 14.35396789493374
SL-16 R/B               
1 25400U 98043G   25328.34505503  .00000094  00000+0  58448-4 0  9995
2 25400  98.8096 276.0629 0009219 326.2039  33.8552 14.26018791423971
SL-16 R/B               
1 25407U 98045B   25328.39988846  .00000234  00000+0  14252-3 0  9994
2 25407  71.0124  42.9943 0008057 202.4535 157.6237 14.16169923412197
ISS (ZARYA)             
1 25544U 98067A   25328.22215535  .00013951  00000+0  26056-3 0  9995
2 25544  51.6316 234.1374 0003908 162.5046 197.6078 15.49037704539984
CZ-4B R/B               
1 25732U 99025C   25328.12358117  .00000082  00000+0  60602-4 0  9999
2 25732  98.6795   9.8177 0036040 289.0415 129.5337 14.18236841373202
OKEAN-O                 
1 25860U 99039A   25328.13130335  .00000797  00000+0  11192-3 0  9999
2 25860  97.9627  23.9920 0001099  69.4411 290.6919 14.80114386418771
SL-16 R/B               
1 25861U 99039B   25328.14430675  .00000760  00000+0  10359-3 0  9995
2 25861  98.0150  22.2920 0013683 237.0920 122.8977 14.81546900421234
DELTA 2 R/B             
1 25876U 99041E   25328.08951816  .00001006  00000+0  20179-3 0  9997
2 25876  51.7628   2.8917 0504906  36.8093 326.6414 14.11332653348111
HELIOS 1B               
1 25977U 99064A   25328.30138867  .00001819  00000+0  20881-3 0  9994
2 25977  98.1752 222.4215 0002434  68.0099 292.1374 14.87169183669598
TERRA                   
1 25994U 99068A   25328.45974088  .00000567  00000+0  12500-3 0  9994
2 25994  97.9772  20.8121 0003075 135.1072 352.3411 14.60921463379712
SL-16 R/B               
1 26070U 00006B   25328.38800505  .00000104  00000+0  76918-4 0  9999
2 26070  71.0017 319.2450 0017448 334.4641  25.5619 14.15801591333659
TITAN 4B R/B            
1 26474U 00047B   25328.44505536  .00003485  00000+0  22673-3 0  9998
2 26474  67.9902 336.2287 0040522 166.3242 193.9015 15.08587165377030
